OBJECT_NAME,OBJECT_ID,EPOCH,MEAN_MOTION,ECCENTRICITY,INCLINATION,RA_OF_ASC_NODE,ARG_OF_PERICENTER,MEAN_ANOMALY,EPHEMERIS_TYPE,CLASSIFICATION_TYPE,NORAD_CAT_ID,ELEMENT_SET_NO,REV_AT_EPOCH,BSTAR,MEAN_MOTION_DOT,MEAN_MOTION_DDOT
GSAT-18,2016-060A,2026-06-08T01:45:21.134592,1.00271309,.00057603,0.0412,117.8191,312.6827,286.2985,0,U,41793,999,3543,0,-.61E-6,0
SKY MUSTER 2 (NBN1B),2016-060B,2026-06-07T15:49:37.339680,1.00272411,.00016106,0.0151,308.0787,124.8736,205.3230,0,U,41794,999,3542,0,-.229E-5,0
HIMAWARI-9,2016-064A,2026-06-08T07:12:26.588736,1.00272860,.00008703,0.0317,158.6712,317.7451,29.1608,0,U,41836,999,3512,0,-.259E-5,0
SHIJIAN-17 (SJ-17),2016-065A,2026-06-07T21:27:33.035040,0.99853674,.0001954,5.7283,72.7158,23.4963,11.7304,0,U,41838,999,3511,0,.16E-6,0
GOES 16,2016-071A,2026-06-08T06:02:27.849408,1.00270713,.00004579,0.3168,85.6172,315.2230,201.7536,0,U,41866,999,3501,0,-.75E-6,0
TIANLIAN 1-04,2016-072A,2026-06-08T05:40:05.678976,1.00269507,.0041864,0.8459,82.9549,89.7472,345.7726,0,U,41869,999,3521,0,.46E-6,0
WGS F8 (USA 272),2016-075A,2026-06-07T07:57:38.842848,1.00269884,.00001578,0.0110,76.7831,263.0063,185.1797,0,U,41879,999,3472,0,-.188E-5,0
FENGYUN 4A,2016-077A,2026-06-08T07:07:34.555872,1.00274132,.00082616,2.2994,80.3795,151.5371,255.4388,0,U,41882,999,3484,0,-.341E-5,0
ECHOSTAR 19,2016-079A,2026-06-07T07:49:48.726624,1.00271514,.00013963,0.0177,0.2276,84.0179,191.8554,0,U,41893,999,3460,0,-.124E-5,0
JCSAT-110A (JCSAT-15),2016-082A,2026-06-07T21:33:06.546816,1.00275761,.00007812,0.0173,336.3997,126.2772,226.9676,0,U,41903,999,3466,0,-.336E-5,0
STAR ONE D1,2016-082B,2026-06-07T07:53:40.855776,1.00269496,.00021255,0.0154,45.9307,43.7579,200.4437,0,U,41904,999,3467,0,-.196E-5,0
TJS-2,2017-001A,2026-06-08T03:33:38.729088,1.00272607,.0000675,0.8090,85.4565,22.8069,268.2340,0,U,41911,999,3462,0,.9E-7,0
SBIRS GEO-4 (USA 273),2017-004A,2026-06-08T06:38:16.511136,1.00272029,.00022017,2.2253,43.0212,30.1360,303.9866,0,U,41937,999,3450,0,.139E-5,0
HISPASAT 36W-1,2017-006A,2026-06-07T09:49:59.967840,1.00277541,.00013455,0.0250,204.5529,243.5935,279.1752,0,U,41942,999,3414,0,-.229E-5,0
TELKOM 3S,2017-007A,2026-06-08T07:05:57.211584,1.00270368,.00023025,0.0190,306.2130,134.1803,40.7976,0,U,41944,999,3405,0,-.347E-5,0
INTELSAT 32E (IS-32E),2017-007B,2026-06-07T18:21:19.617696,1.00270608,.00006784,0.0010,354.1974,347.1216,147.0062,0,U,41945,999,3413,0,-.254E-5,0
ECHOSTAR 23,2017-014A,2026-06-07T11:11:39.468192,1.00268374,.00017428,0.0179,343.9352,97.2622,232.6885,0,U,42070,999,3382,0,0,0
WGS F9 (USA 275),2017-016A,2026-06-07T16:47:30.726816,1.00270650,.00003489,0.0095,280.2284,165.7272,50.0314,0,U,42075,999,3380,0,-.82E-6,0
SES-10,2017-017A,2026-06-07T19:57:12.671424,1.00271620,.0002893,0.0206,32.3181,54.8206,41.5067,0,U,42432,999,3366,0,-.258E-5,0
CHINASAT 16 (SJ-13),2017-018A,2026-06-07T16:37:00.812064,1.00274073,.00039635,0.0974,91.4359,138.2362,26.2183,0,U,42662,999,3365,0,-.337E-5,0
KOREASAT 7,2017-023A,2026-06-08T00:14:40.964640,1.00272045,.00005341,0.0189,346.8803,67.7211,321.3628,0,U,42691,999,3327,0,-.347E-5,0
SGDC,2017-023B,2026-06-07T11:55:56.282016,1.00272417,.00028458,0.0249,58.8988,27.2607,273.8812,0,U,42692,999,3330,0,-.235E-5,0
GSAT-9,2017-024A,2026-06-08T01:51:43.025184,1.00272940,.00025385,0.0120,301.6235,130.8610,309.2607,0,U,42695,999,3320,0,-.271E-5,0
INMARSAT 5-F4,2017-025A,2026-06-07T11:59:05.748576,1.00273861,.00001149,0.0177,354.1064,199.5792,298.4718,0,U,42698,999,3318,0,.89E-6,0
SES-15,2017-026A,2026-06-08T06:38:24.204192,1.00269869,.00005404,0.0197,331.2013,87.9187,167.9996,0,U,42709,999,734,0,.75E-6,0
QZS-2 (MICHIBIKI-2),2017-028A,2026-06-07T13:48:31.783104,1.00286521,.07605855,39.4419,243.2963,269.1564,91.9396,0,U,42738,999,753,0,-.151E-5,0
VIASAT-2,2017-029A,2026-06-07T07:57:40.473216,1.00271397,.00003022,0.0179,291.0744,148.4673,225.7314,0,U,42740,999,3310,0,-.251E-5,0
EUTELSAT 172B,2017-029B,2026-06-08T07:07:21.902592,1.00271616,.00000538,0.0287,118.1319,56.2545,1.1470,0,U,42741,999,3365,0,.1E-6,0
GSAT-19,2017-031A,2026-06-08T05:03:15.250752,1.00271285,.00069492,0.1091,90.8073,350.1590,299.3108,0,U,42747,999,3305,0,.141E-5,0
ECHOSTAR 21,2017-032A,2026-06-08T06:35:09.309984,1.00271010,.00023023,1.7718,355.0930,86.8561,283.7737,0,U,42749,999,3301,0,.79E-6,0
BULGARIASAT-1,2017-038A,2026-06-07T23:42:07.013088,1.00268650,.00035906,0.0228,279.1205,172.0963,162.5923,0,U,42801,999,3275,0,.26E-6,0
